[{"OBJECT_NAME":"ONEWEB-0058","OBJECT_ID":"2020-008AG","EPOCH":"2025-09-24T22:40:25.178304","MEAN_MOTION":13.10375992,"ECCENTRICITY":0.00014331,"INCLINATION":87.8744,"RA_OF_ASC_NODE":89.1755,"ARG_OF_PERICENTER":87.2843,"MEAN_ANOMALY":272.8449,"EPHEMERIS_TYPE":0,"CLASSIFICATION_TYPE":"U","NORAD_CAT_ID":45161,"ELEMENT_SET_NO":999,"REV_AT_EPOCH":27368,"BSTAR":0.00094905423,"MEAN_MOTION_DOT":3.44e-6,"MEAN_MOTION_DDOT":0},{"OBJECT_NAME":"ONEWEB-0059","OBJECT_ID":"2020-008AH","EPOCH":"2025-09-24T20:45:28.292256","MEAN_MOTION":13.10374982,"ECCENTRICITY":0.00015154,"INCLINATION":87.8745,"RA_OF_ASC_NODE":89.1918,"ARG_OF_PERICENTER":89.2777,"MEAN_ANOMALY":270.8524,"EPHEMERIS_TYPE":0,"CLASSIFICATION_TYPE":"U","NORAD_CAT_ID":45162,"ELEMENT_SET_NO":999,"REV_AT_EPOCH":27357,"BSTAR":0.00027764259,"MEAN_MOTION_DOT":1.1e-6,"MEAN_MOTION_DDOT":0},{"OBJECT_NAME":"ONEWEB-0062","OBJECT_ID":"2020-008AJ","EPOCH":"2025-09-24T23:12:29.202624","MEAN_MOTION":13.10370496,"ECCENTRICITY":0.00016675,"INCLINATION":87.8736,"RA_OF_ASC_NODE":89.1488,"ARG_OF_PERICENTER":101.3191,"MEAN_ANOMALY":258.8124,"EPHEMERIS_TYPE":0,"CLASSIFICATION_TYPE":"U","NORAD_CAT_ID":45163,"ELEMENT_SET_NO":999,"REV_AT_EPOCH":27345,"BSTAR":0.0012728154,"MEAN_MOTION_DOT":4.57e-6,"MEAN_MOTION_DDOT":0},{"OBJECT_NAME":"ONEWEB-0065","OBJECT_ID":"2020-008AK","EPOCH":"2025-09-24T22:43:48.037728","MEAN_MOTION":13.10375309,"ECCENTRICITY":0.00019501,"INCLINATION":87.8742,"RA_OF_ASC_NODE":89.1784,"ARG_OF_PERICENTER":80.9428,"MEAN_ANOMALY":279.192,"EPHEMERIS_TYPE":0,"CLASSIFICATION_TYPE":"U","NORAD_CAT_ID":45164,"ELEMENT_SET_NO":999,"REV_AT_EPOCH":27314,"BSTAR":0.001285431,"MEAN_MOTION_DOT":4.61e-6,"MEAN_MOTION_DDOT":0},{"OBJECT_NAME":"ONEWEB-0066","OBJECT_ID":"2020-020A","EPOCH":"2025-09-24T20:42:27.397440","MEAN_MOTION":13.11413466,"ECCENTRICITY":0.00015065,"INCLINATION":87.8794,"RA_OF_ASC_NODE":73.9117,"ARG_OF_PERICENTER":82.9069,"MEAN_ANOMALY":277.223,"EPHEMERIS_TYPE":0,"CLASSIFICATION_TYPE":"U","NORAD_CAT_ID":45424,"ELEMENT_SET_NO":999,"REV_AT_EPOCH":26790,"BSTAR":-0.00062217464,"MEAN_MOTION_DOT":-2.08e-6,"MEAN_MOTION_DDOT":0},{"OBJECT_NAME":"ONEWEB-0067","OBJECT_ID":"2020-020B","EPOCH":"2025-09-24T10:37:11.471232","MEAN_MOTION":13.11420271,"ECCENTRICITY":0.00016207,"INCLINATION":87.8787,"RA_OF_ASC_NODE":73.8999,"ARG_OF_PERICENTER":83.9269,"MEAN_ANOMALY":276.2043,"EPHEMERIS_TYPE":0,"CLASSIFICATION_TYPE":"U","NORAD_CAT_ID":45425,"ELEMENT_SET_NO":999,"REV_AT_EPOCH":26790,"BSTAR":0.00084580944,"MEAN_MOTION_DOT":3.12e-6,"MEAN_MOTION_DDOT":0},{"OBJECT_NAME":"ONEWEB-0080","OBJECT_ID":"2020-020C","EPOCH":"2025-09-24T19:59:44.719872","MEAN_MOTION":13.11416952,"ECCENTRICITY":0.0001322,"INCLINATION":87.8795,"RA_OF_ASC_NODE":73.919,"ARG_OF_PERICENTER":96.9436,"MEAN_ANOMALY":263.1843,"EPHEMERIS_TYPE":0,"CLASSIFICATION_TYPE":"U","NORAD_CAT_ID":45426,"ELEMENT_SET_NO":999,"REV_AT_EPOCH":26792,"BSTAR":0.0015392594,"MEAN_MOTION_DOT":5.58e-6,"MEAN_MOTION_DDOT":0},{"OBJECT_NAME":"ONEWEB-0090","OBJECT_ID":"2020-020D","EPOCH":"2025-09-24T20:27:49.104288","MEAN_MOTION":13.11412891,"ECCENTRICITY":0.00016388,"INCLINATION":87.8796,"RA_OF_ASC_NODE":73.9157,"ARG_OF_PERICENTER":93.0833,"MEAN_ANOMALY":267.0483,"EPHEMERIS_TYPE":0,"CLASSIFICATION_TYPE":"U","NORAD_CAT_ID":45427,"ELEMENT_SET_NO":999,"REV_AT_EPOCH":26789,"BSTAR":0.0010087226,"MEAN_MOTION_DOT":3.7e-6,"MEAN_MOTION_DDOT":0},{"OBJECT_NAME":"ONEWEB-0061","OBJECT_ID":"2020-020E","EPOCH":"2025-09-24T23:03:53.119872","MEAN_MOTION":13.11416983,"ECCENTRICITY":0.00015901,"INCLINATION":87.8789,"RA_OF_ASC_NODE":73.8744,"ARG_OF_PERICENTER":91.8247,"MEAN_ANOMALY":268.3063,"EPHEMERIS_TYPE":0,"CLASSIFICATION_TYPE":"U","NORAD_CAT_ID":45428,"ELEMENT_SET_NO":999,"REV_AT_EPOCH":26786,"BSTAR":-0.0012563463,"MEAN_MOTION_DOT":-4.33e-6,"MEAN_MOTION_DDOT":0},{"OBJECT_NAME":"ONEWEB-0081","OBJECT_ID":"2020-020F","EPOCH":"2025-09-24T22:37:12.228960","MEAN_MOTION":13.11414281,"ECCENTRICITY":0.00015235,"INCLINATION":87.8787,"RA_OF_ASC_NODE":73.8968,"ARG_OF_PERICENTER":83.6866,"MEAN_ANOMALY":276.4435,"EPHEMERIS_TYPE":0,"CLASSIFICATION_TYPE":"U","NORAD_CAT_ID":45429,"ELEMENT_SET_NO":999,"REV_AT_EPOCH":26797,"BSTAR":-0.00098641916,"MEAN_MOTION_DOT":-3.37e-6,"MEAN_MOTION_DDOT":0},{"OBJECT_NAME":"ONEWEB-0069","OBJECT_ID":"2020-020G","EPOCH":"2025-09-24T20:31:28.579296","MEAN_MOTION":13.11412844,"ECCENTRICITY":0.00016625,"INCLINATION":87.8793,"RA_OF_ASC_NODE":73.9098,"ARG_OF_PERICENTER":87.3592,"MEAN_ANOMALY":272.7726,"EPHEMERIS_TYPE":0,"CLASSIFICATION_TYPE":"U","NORAD_CAT_ID":45430,"ELEMENT_SET_NO":999,"REV_AT_EPOCH":26789,"BSTAR":0.00031724741,"MEAN_MOTION_DOT":1.25e-6,"MEAN_MOTION_DDOT":0},{"OBJECT_NAME":"ONEWEB-0031","OBJECT_ID":"2020-020H","EPOCH":"2025-09-24T21:41:03.323616","MEAN_MOTION":13.11425007,"ECCENTRICITY":0.00015989,"INCLINATION":87.8794,"RA_OF_ASC_NODE":73.9281,"ARG_OF_PERICENTER":98.4366,"MEAN_ANOMALY":261.6943,"EPHEMERIS_TYPE":0,"CLASSIFICATION_TYPE":"U","NORAD_CAT_ID":45431,"ELEMENT_SET_NO":999,"REV_AT_EPOCH":26788,"BSTAR":-0.0026456573,"MEAN_MOTION_DOT":-9.25e-6,"MEAN_MOTION_DDOT":0},{"OBJECT_NAME":"ONEWEB-0027","OBJECT_ID":"2020-020J","EPOCH":"2025-09-24T19:59:32.250624","MEAN_MOTION":13.17650494,"ECCENTRICITY":0.00019378,"INCLINATION":87.9071,"RA_OF_ASC_NODE":58.6133,"ARG_OF_PERICENTER":105.0069,"MEAN_ANOMALY":255.1277,"EPHEMERIS_TYPE":0,"CLASSIFICATION_TYPE":"U","NORAD_CAT_ID":45432,"ELEMENT_SET_NO":999,"REV_AT_EPOCH":27141,"BSTAR":-2.506059e-5,"MEAN_MOTION_DOT":3.0e-8,"MEAN_MOTION_DDOT":0},{"OBJECT_NAME":"ONEWEB-0064","OBJECT_ID":"2020-020K","EPOCH":"2025-09-24T17:58:53.243904","MEAN_MOTION":13.11418305,"ECCENTRICITY":0.00016856,"INCLINATION":87.8789,"RA_OF_ASC_NODE":73.9497,"ARG_OF_PERICENTER":96.7554,"MEAN_ANOMALY":263.3765,"EPHEMERIS_TYPE":0,"CLASSIFICATION_TYPE":"U","NORAD_CAT_ID":45433,"ELEMENT_SET_NO":999,"REV_AT_EPOCH":26789,"BSTAR":0.0010472539,"MEAN_MOTION_DOT":3.84e-6,"MEAN_MOTION_DDOT":0},{"OBJECT_NAME":"ONEWEB-0018","OBJECT_ID":"2020-020L","EPOCH":"2025-09-24T20:35:08.596896","MEAN_MOTION":13.11413816,"ECCENTRICITY":0.00015918,"INCLINATION":87.879,"RA_OF_ASC_NODE":73.9128,"ARG_OF_PERICENTER":91.0562,"MEAN_ANOMALY":269.0748,"EPHEMERIS_TYPE":0,"CLASSIFICATION_TYPE":"U","NORAD_CAT_ID":45434,"ELEMENT_SET_NO":999,"REV_AT_EPOCH":26785,"BSTAR":-0.00031136324,"MEAN_MOTION_DOT":-9.8e-7,"MEAN_MOTION_DDOT":0},{"OBJECT_NAME":"ONEWEB-0083","OBJECT_ID":"2020-020M","EPOCH":"2025-09-24T20:21:44.205984","MEAN_MOTION":13.11416253,"ECCENTRICITY":0.0001608,"INCLINATION":87.8794,"RA_OF_ASC_NODE":73.904,"ARG_OF_PERICENTER":93.3143,"MEAN_ANOMALY":266.8169,"EPHEMERIS_TYPE":0,"CLASSIFICATION_TYPE":"U","NORAD_CAT_ID":45435,"ELEMENT_SET_NO":999,"REV_AT_EPOCH":26789,"BSTAR":0.0015973748,"MEAN_MOTION_DOT":5.79e-6,"MEAN_MOTION_DDOT":0},{"OBJECT_NAME":"ONEWEB-0095","OBJECT_ID":"2020-020N","EPOCH":"2025-09-24T18:18:38.193120","MEAN_MOTION":13.11416594,"ECCENTRICITY":0.00024,"INCLINATION":87.8783,"RA_OF_ASC_NODE":73.9391,"ARG_OF_PERICENTER":92.2995,"MEAN_ANOMALY":267.8408,"EPHEMERIS_TYPE":0,"CLASSIFICATION_TYPE":"U","NORAD_CAT_ID":45436,"ELEMENT_SET_NO":999,"REV_AT_EPOCH":26788,"BSTAR":0.0018540153,"MEAN_MOTION_DOT":6.7e-6,"MEAN_MOTION_DDOT":0}]
