ONEWEB-0058             
1 45161U 20008AG  25267.94473586  .00000344  00000+0  94905-3 0  9995
2 45161  87.8744  89.1755 0001433  87.2843 272.8449 13.10375992273687
ONEWEB-0059             
1 45162U 20008AH  25267.86491079  .00000110  00000+0  27764-3 0  9994
2 45162  87.8745  89.1918 0001515  89.2777 270.8524 13.10374982273577
ONEWEB-0062             
1 45163U 20008AJ  25267.96700466  .00000457  00000+0  12728-2 0  9996
2 45163  87.8736  89.1488 0001667 101.3191 258.8124 13.10370496273459
ONEWEB-0065             
1 45164U 20008AK  25267.94708377  .00000461  00000+0  12854-2 0  9999
2 45164  87.8742  89.1784 0001950  80.9428 279.1920 13.10375309273140
ONEWEB-0066             
1 45424U 20020A   25267.86281710 -.00000208  00000+0 -62217-3 0  9990
2 45424  87.8794  73.9117 0001506  82.9069 277.2230 13.11413466267905
ONEWEB-0067             
1 45425U 20020B   25267.44249388  .00000312  00000+0  84581-3 0  9992
2 45425  87.8787  73.8999 0001620  83.9269 276.2043 13.11420271267908
ONEWEB-0080             
1 45426U 20020C   25267.83315648  .00000558  00000+0  15393-2 0  9995
2 45426  87.8795  73.9190 0001322  96.9436 263.1843 13.11416952267927
ONEWEB-0090             
1 45427U 20020D   25267.85265167  .00000370  00000+0  10087-2 0  9995
2 45427  87.8796  73.9157 0001638  93.0833 267.0483 13.11412891267898
ONEWEB-0061             
1 45428U 20020E   25267.96103148 -.00000433  00000+0 -12563-2 0  9991
2 45428  87.8789  73.8744 0001590  91.8247 268.3063 13.11416983267865
ONEWEB-0081             
1 45429U 20020F   25267.94250265 -.00000337  00000+0 -98642-3 0  9999
2 45429  87.8787  73.8968 0001523  83.6866 276.4435 13.11414281267978
ONEWEB-0069             
1 45430U 20020G   25267.85519189  .00000125  00000+0  31725-3 0  9996
2 45430  87.8793  73.9098 0001662  87.3592 272.7726 13.11412844267899
ONEWEB-0031             
1 45431U 20020H   25267.90351069 -.00000925  00000+0 -26457-2 0  9999
2 45431  87.8794  73.9281 0001598  98.4366 261.6943 13.11425007267887
ONEWEB-0027             
1 45432U 20020J   25267.83301216  .00000003  00000+0 -25061-4 0  9999
2 45432  87.9071  58.6133 0001937 105.0069 255.1277 13.17650494271413
ONEWEB-0064             
1 45433U 20020K   25267.74922736  .00000384  00000+0  10473-2 0  9996
2 45433  87.8789  73.9497 0001685  96.7554 263.3765 13.11418305267894
ONEWEB-0018             
1 45434U 20020L   25267.85773839 -.00000098  00000+0 -31136-3 0  9991
2 45434  87.8790  73.9128 0001591  91.0562 269.0748 13.11413816267853
ONEWEB-0083             
1 45435U 20020M   25267.84842831  .00000579  00000+0  15974-2 0  9993
2 45435  87.8794  73.9040 0001608  93.3143 266.8169 13.11416253267894
ONEWEB-0095             
1 45436U 20020N   25267.76294205  .00000670  00000+0  18540-2 0  9995
2 45436  87.8783  73.9391 0002400  92.2995 267.8408 13.11416594267880
